{"id":"899","name":"Neptune ","centerId":"500@10","centerName":"Sun ","epoch":"2000-Jan-01 12:00:00.0000","elementTable":{"periapsis":4452266434805.656,"inclination":0.030799562769776512,"longitudeOfAscendingNode":2.3004966781352225,"argumentOfPeriapsis":4.644445912346782,"timeOfPeriapsis":2467077.427229176,"meanMotion":1.2056251412618888e-9,"meanAnomaly":4.665234302851552,"trueAnomaly":4.642737548385813,"apoapsis":4553758231687.532,"siderealOrbitPeriod":5211557964.528826,"semiMajorAxis":4503012333246.595,"semiMinorAxis":4502726388218.849,"semiLatusRectum":4502440461348.851,"eccentricity":0.01126932255243264,"linearEccentricity":50745898440.97878},"physicalDataTable":{"meanRadius":24624000,"mass":1.02409e+26,"siderealRotationRate":0.000108338,"siderealRotationPeriod":57996.13530967515,"gravParameter":6835099970,"obliquity":28.32},"vectorTable":{"position":[-313593872063.40906,0,4495048903412.677],"velocity":[5415.986903146597,0,316.6596007753846]}}
